[{"OBJECT_NAME":"KANOPUS-V 5","OBJECT_ID":"2018-111A","EPOCH":"2026-03-09T21:37:32.042784","MEAN_MOTION":15.22750265,"ECCENTRICITY":0.0001351,"INCLINATION":97.3642,"RA_OF_ASC_NODE":336.4182,"ARG_OF_PERICENTER":73.1386,"MEAN_ANOMALY":286.9998,"EPHEMERIS_TYPE":0,"CLASSIFICATION_TYPE":"U","NORAD_CAT_ID":43876,"ELEMENT_SET_NO":999,"REV_AT_EPOCH":39967,"BSTAR":0.00010734798,"MEAN_MOTION_DOT":2.436e-5,"MEAN_MOTION_DDOT":0},{"OBJECT_NAME":"JILIN-1 10","OBJECT_ID":"2019-005E","EPOCH":"2026-03-09T22:11:06.915840","MEAN_MOTION":15.2445874,"ECCENTRICITY":0.00069203,"INCLINATION":97.4731,"RA_OF_ASC_NODE":167.8564,"ARG_OF_PERICENTER":265.2171,"MEAN_ANOMALY":94.8276,"EPHEMERIS_TYPE":0,"CLASSIFICATION_TYPE":"U","NORAD_CAT_ID":43946,"ELEMENT_SET_NO":999,"REV_AT_EPOCH":39418,"BSTAR":0.00035023991,"MEAN_MOTION_DOT":8.535e-5,"MEAN_MOTION_DDOT":0}]
